SL-4 R/B                
1 39679U 14021B   26048.30167089  .00013811  00000+0  31179-3 0  9993
2 39679  51.6060  76.6859 0098918  28.6834 331.9541 15.38476167653133
ALOS-2                  
1 39766U 14029A   26048.29376891  .00000455  00000+0  67784-4 0  9991
2 39766  97.9212 147.1852 0001544 104.0602 256.0782 14.79464711633857
YAOGAN-29               
1 41038U 15069A   26048.28277325  .00000309  00000+0  44710-4 0  9994
2 41038  98.0165  76.6556 0002775  68.8727 291.2783 14.82970272552850
ASTRO-H (HITOMI)        
1 41337U 16012A   26048.27340886  .00003744  00000+0  21988-3 0  9994
2 41337  30.9992 128.2820 0009863 127.8034 232.3498 15.09853414549140
HXMT (HUIYAN)           
1 42758U 17034A   26048.30489315  .00006746  00000+0  34103-3 0  9990
2 42758  43.0145 129.9801 0030566 106.4910 253.9301 15.17198828479447
CZ-2C R/B               
1 43521U 18054D   26048.24523269  .00566196  14748-3  81797-3 0  9991
2 43521  35.1270  82.5357 0011476 112.3776 247.8183 16.04132721425619
SAOCOM 1A               
1 43641U 18076A   26048.30480044 -.00000026  00000+0  33376-5 0  9998
2 43641  97.8871 236.7655 0001385  79.9369 280.2001 14.82144141398344
H-2A R/B                
1 43682U 18084L   26048.14704974  .00023365  00000+0  57205-3 0  9990
2 43682  98.8748 261.1590 0026416  94.3838 266.0422 15.40427130402619
SAOCOM 1B               
1 46265U 20059A   26048.26855120  .00000482  00000+0  67136-4 0  9998
2 46265  97.8868 235.8276 0001459  86.7410 273.3970 14.82147726295727
CSS (TIANHE)            
1 48274U 21035A   26048.23206423  .00029154  00000+0  35627-3 0  9994
2 48274  41.4683 332.5551 0004162 122.3722 237.7519 15.59770251274413
COSMOS 2550             
1 48865U 21056A   26046.73800145 -.00000057  00000+0  41028-5 0  9993
2 48865  67.1426 107.3331 0008396 269.7676  90.2516 15.33826475260090
CZ-2C R/B               
1 52794U 22058K   26048.25014848  .00035151  00000+0  54190-3 0  9992
2 52794  50.1884  63.3094 0042120 113.8873 246.6519 15.52755893206955
