CCSDS_OMM_VERS = 2.0
CREATION_DATE  = 
ORIGINATOR     = 

OBJECT_NAME    = SL-4 R/B
OBJECT_ID      = 2014-021B
CENTER_NAME    = EARTH
REF_FRAME      = TEME
TIME_SYSTEM    = UTC
MEAN_ELEMENT_THEORY = SGP/SGP4

EPOCH          = 2026-02-17T07:14:24.364896
MEAN_MOTION    = 15.38476167
ECCENTRICITY   = .00989186
INCLINATION    = 51.6060
RA_OF_ASC_NODE = 76.6859
ARG_OF_PERICENTER = 28.6834
MEAN_ANOMALY   = 331.9541

EPHEMERIS_TYPE = 0
CLASSIFICATION_TYPE = U
NORAD_CAT_ID   = 39679
ELEMENT_SET_NO = 999
REV_AT_EPOCH   = 65313
BSTAR          = .31179406E-3
MEAN_MOTION_DOT = .13811E-3
MEAN_MOTION_DDOT = 0

CCSDS_OMM_VERS = 2.0
CREATION_DATE  = 
ORIGINATOR     = 

OBJECT_NAME    = ALOS-2
OBJECT_ID      = 2014-029A
CENTER_NAME    = EARTH
REF_FRAME      = TEME
TIME_SYSTEM    = UTC
MEAN_ELEMENT_THEORY = SGP/SGP4

EPOCH          = 2026-02-17T07:03:01.633824
MEAN_MOTION    = 14.79464711
ECCENTRICITY   = .00015448
INCLINATION    = 97.9212
RA_OF_ASC_NODE = 147.1852
ARG_OF_PERICENTER = 104.0602
MEAN_ANOMALY   = 256.0782

EPHEMERIS_TYPE = 0
CLASSIFICATION_TYPE = U
NORAD_CAT_ID   = 39766
ELEMENT_SET_NO = 999
REV_AT_EPOCH   = 63385
BSTAR          = .67783813E-4
MEAN_MOTION_DOT = .455E-5
MEAN_MOTION_DDOT = 0

CCSDS_OMM_VERS = 2.0
CREATION_DATE  = 
ORIGINATOR     = 

OBJECT_NAME    = YAOGAN-29
OBJECT_ID      = 2015-069A
CENTER_NAME    = EARTH
REF_FRAME      = TEME
TIME_SYSTEM    = UTC
MEAN_ELEMENT_THEORY = SGP/SGP4

EPOCH          = 2026-02-17T06:47:11.608800
MEAN_MOTION    = 14.82970272
ECCENTRICITY   = .00027751
INCLINATION    = 98.0165
RA_OF_ASC_NODE = 76.6556
ARG_OF_PERICENTER = 68.8727
MEAN_ANOMALY   = 291.2783

EPHEMERIS_TYPE = 0
CLASSIFICATION_TYPE = U
NORAD_CAT_ID   = 41038
ELEMENT_SET_NO = 999
REV_AT_EPOCH   = 55285
BSTAR          = .4470958E-4
MEAN_MOTION_DOT = .309E-5
MEAN_MOTION_DDOT = 0

CCSDS_OMM_VERS = 2.0
CREATION_DATE  = 
ORIGINATOR     = 

OBJECT_NAME    = ASTRO-H (HITOMI)
OBJECT_ID      = 2016-012A
CENTER_NAME    = EARTH
REF_FRAME      = TEME
TIME_SYSTEM    = UTC
MEAN_ELEMENT_THEORY = SGP/SGP4

EPOCH          = 2026-02-17T06:33:42.525504
MEAN_MOTION    = 15.09853414
ECCENTRICITY   = .00098635
INCLINATION    = 30.9992
RA_OF_ASC_NODE = 128.2820
ARG_OF_PERICENTER = 127.8034
MEAN_ANOMALY   = 232.3498

EPHEMERIS_TYPE = 0
CLASSIFICATION_TYPE = U
NORAD_CAT_ID   = 41337
ELEMENT_SET_NO = 999
REV_AT_EPOCH   = 54914
BSTAR          = .21988497E-3
MEAN_MOTION_DOT = .3744E-4
MEAN_MOTION_DDOT = 0

CCSDS_OMM_VERS = 2.0
CREATION_DATE  = 
ORIGINATOR     = 

OBJECT_NAME    = HXMT (HUIYAN)
OBJECT_ID      = 2017-034A
CENTER_NAME    = EARTH
REF_FRAME      = TEME
TIME_SYSTEM    = UTC
MEAN_ELEMENT_THEORY = SGP/SGP4

EPOCH          = 2026-02-17T07:19:02.768160
MEAN_MOTION    = 15.17198828
ECCENTRICITY   = .00305661
INCLINATION    = 43.0145
RA_OF_ASC_NODE = 129.9801
ARG_OF_PERICENTER = 106.4910
MEAN_ANOMALY   = 253.9301

EPHEMERIS_TYPE = 0
CLASSIFICATION_TYPE = U
NORAD_CAT_ID   = 42758
ELEMENT_SET_NO = 999
REV_AT_EPOCH   = 47944
BSTAR          = .34102995E-3
MEAN_MOTION_DOT = .6746E-4
MEAN_MOTION_DDOT = 0

CCSDS_OMM_VERS = 2.0
CREATION_DATE  = 
ORIGINATOR     = 

OBJECT_NAME    = CZ-2C R/B
OBJECT_ID      = 2018-054D
CENTER_NAME    = EARTH
REF_FRAME      = TEME
TIME_SYSTEM    = UTC
MEAN_ELEMENT_THEORY = SGP/SGP4

EPOCH          = 2026-02-17T05:53:08.104416
MEAN_MOTION    = 16.04132721
ECCENTRICITY   = .00114762
INCLINATION    = 35.1270
RA_OF_ASC_NODE = 82.5357
ARG_OF_PERICENTER = 112.3776
MEAN_ANOMALY   = 247.8183

EPHEMERIS_TYPE = 0
CLASSIFICATION_TYPE = U
NORAD_CAT_ID   = 43521
ELEMENT_SET_NO = 999
REV_AT_EPOCH   = 42561
BSTAR          = .81796975E-3
MEAN_MOTION_DOT = .566196E-2
MEAN_MOTION_DDOT = .14748303E-3

CCSDS_OMM_VERS = 2.0
CREATION_DATE  = 
ORIGINATOR     = 

OBJECT_NAME    = SAOCOM 1A
OBJECT_ID      = 2018-076A
CENTER_NAME    = EARTH
REF_FRAME      = TEME
TIME_SYSTEM    = UTC
MEAN_ELEMENT_THEORY = SGP/SGP4

EPOCH          = 2026-02-17T07:18:54.758016
MEAN_MOTION    = 14.82144141
ECCENTRICITY   = .00013856
INCLINATION    = 97.8871
RA_OF_ASC_NODE = 236.7655
ARG_OF_PERICENTER = 79.9369
MEAN_ANOMALY   = 280.2001

EPHEMERIS_TYPE = 0
CLASSIFICATION_TYPE = U
NORAD_CAT_ID   = 43641
ELEMENT_SET_NO = 999
REV_AT_EPOCH   = 39834
BSTAR          = .3337638E-5
MEAN_MOTION_DOT = -.26E-6
MEAN_MOTION_DDOT = 0

CCSDS_OMM_VERS = 2.0
CREATION_DATE  = 
ORIGINATOR     = 

OBJECT_NAME    = H-2A R/B
OBJECT_ID      = 2018-084L
CENTER_NAME    = EARTH
REF_FRAME      = TEME
TIME_SYSTEM    = UTC
MEAN_ELEMENT_THEORY = SGP/SGP4

EPOCH          = 2026-02-17T03:31:45.097536
MEAN_MOTION    = 15.40427130
ECCENTRICITY   = .00264162
INCLINATION    = 98.8748
RA_OF_ASC_NODE = 261.1590
ARG_OF_PERICENTER = 94.3838
MEAN_ANOMALY   = 266.0422

EPHEMERIS_TYPE = 0
CLASSIFICATION_TYPE = U
NORAD_CAT_ID   = 43682
ELEMENT_SET_NO = 999
REV_AT_EPOCH   = 40261
BSTAR          = .5720471E-3
MEAN_MOTION_DOT = .23365E-3
MEAN_MOTION_DDOT = 0

CCSDS_OMM_VERS = 2.0
CREATION_DATE  = 
ORIGINATOR     = 

OBJECT_NAME    = SAOCOM 1B
OBJECT_ID      = 2020-059A
CENTER_NAME    = EARTH
REF_FRAME      = TEME
TIME_SYSTEM    = UTC
MEAN_ELEMENT_THEORY = SGP/SGP4

EPOCH          = 2026-02-17T06:26:42.823680
MEAN_MOTION    = 14.82147726
ECCENTRICITY   = .00014593
INCLINATION    = 97.8868
RA_OF_ASC_NODE = 235.8276
ARG_OF_PERICENTER = 86.7410
MEAN_ANOMALY   = 273.3970

EPHEMERIS_TYPE = 0
CLASSIFICATION_TYPE = U
NORAD_CAT_ID   = 46265
ELEMENT_SET_NO = 999
REV_AT_EPOCH   = 29572
BSTAR          = .67135988E-4
MEAN_MOTION_DOT = .482E-5
MEAN_MOTION_DDOT = 0

CCSDS_OMM_VERS = 2.0
CREATION_DATE  = 
ORIGINATOR     = 

OBJECT_NAME    = CSS (TIANHE)
OBJECT_ID      = 2021-035A
CENTER_NAME    = EARTH
REF_FRAME      = TEME
TIME_SYSTEM    = UTC
MEAN_ELEMENT_THEORY = SGP/SGP4

EPOCH          = 2026-02-17T05:34:10.349472
MEAN_MOTION    = 15.59770251
ECCENTRICITY   = .00041623
INCLINATION    = 41.4683
RA_OF_ASC_NODE = 332.5551
ARG_OF_PERICENTER = 122.3722
MEAN_ANOMALY   = 237.7519

EPHEMERIS_TYPE = 0
CLASSIFICATION_TYPE = U
NORAD_CAT_ID   = 48274
ELEMENT_SET_NO = 999
REV_AT_EPOCH   = 27441
BSTAR          = .35627248E-3
MEAN_MOTION_DOT = .29154E-3
MEAN_MOTION_DDOT = 0

CCSDS_OMM_VERS = 2.0
CREATION_DATE  = 
ORIGINATOR     = 

OBJECT_NAME    = COSMOS 2550
OBJECT_ID      = 2021-056A
CENTER_NAME    = EARTH
REF_FRAME      = TEME
TIME_SYSTEM    = UTC
MEAN_ELEMENT_THEORY = SGP/SGP4

EPOCH          = 2026-02-15T17:42:43.325280
MEAN_MOTION    = 15.33826475
ECCENTRICITY   = .0008396
INCLINATION    = 67.1426
RA_OF_ASC_NODE = 107.3331
ARG_OF_PERICENTER = 269.7676
MEAN_ANOMALY   = 90.2516

EPHEMERIS_TYPE = 0
CLASSIFICATION_TYPE = U
NORAD_CAT_ID   = 48865
ELEMENT_SET_NO = 999
REV_AT_EPOCH   = 26009
BSTAR          = .4102791E-5
MEAN_MOTION_DOT = -.57E-6
MEAN_MOTION_DDOT = 0

CCSDS_OMM_VERS = 2.0
CREATION_DATE  = 
ORIGINATOR     = 

OBJECT_NAME    = CZ-2C R/B
OBJECT_ID      = 2022-058K
CENTER_NAME    = EARTH
REF_FRAME      = TEME
TIME_SYSTEM    = UTC
MEAN_ELEMENT_THEORY = SGP/SGP4

EPOCH          = 2026-02-17T06:00:12.828672
MEAN_MOTION    = 15.52755893
ECCENTRICITY   = .00421205
INCLINATION    = 50.1884
RA_OF_ASC_NODE = 63.3094
ARG_OF_PERICENTER = 113.8873
MEAN_ANOMALY   = 246.6519

EPHEMERIS_TYPE = 0
CLASSIFICATION_TYPE = U
NORAD_CAT_ID   = 52794
ELEMENT_SET_NO = 999
REV_AT_EPOCH   = 20695
BSTAR          = .54189783E-3
MEAN_MOTION_DOT = .35151E-3
MEAN_MOTION_DDOT = 0

